[
    {
        "Altitude(m)": 715830.5883627728,
        "Argument of Periapsis(deg)": 0.0,
        "Eccentricity": 0.0,
        "Inclination(deg)": 45.0,
        "Latitude(deg)": -40.200630420821994,
        "Longitude(deg)": -102.16728396675552,
        "Mean Anomaly(deg)": 294.5455,
        "RAAN(deg)": 55.00000000000001,
        "Satellite Name": "Constellation 1 260",
        "Satellite Number": 260,
        "Semi-Major Axis(m)": 7083131.272910544,
        "Time(s)": 0
    },
    {
        "Altitude(m)": 715820.9411682265,
        "Argument of Periapsis(deg)": 5.994800624540561e-05,
        "Eccentricity": 0.0,
        "Inclination(deg)": 45.0,
        "Latitude(deg)": -40.17734910807091,
        "Longitude(deg)": -102.09834401076311,
        "Mean Anomaly(deg)": 294.6062011402499,
        "RAAN(deg)": 54.99994341083443,
        "Satellite Name": "Constellation 1 260",
        "Satellite Number": 260,
        "Semi-Major Axis(m)": 7083131.272910544,
        "Time(s)": 1
    },
    {
        "Altitude(m)": 715811.2751311061,
        "Argument of Periapsis(deg)": 0.00011989601249081122,
        "Eccentricity": 0.0,
        "Inclination(deg)": 45.0,
        "Latitude(deg)": -40.15402162833316,
        "Longitude(deg)": -102.02945388598553,
        "Mean Anomaly(deg)": 294.6669022804998,
        "RAAN(deg)": 54.99988682166886,
        "Satellite Name": "Constellation 1 260",
        "Satellite Number": 260,
        "Semi-Major Axis(m)": 7083131.272910544,
        "Time(s)": 2
    },
    {
        "Altitude(m)": 715801.5902866832,
        "Argument of Periapsis(deg)": 0.00017984401873621686,
        "Eccentricity": 0.0,
        "Inclination(deg)": 45.0,
        "Latitude(deg)": -40.13064805018584,
        "Longitude(deg)": -101.96061361554163,
        "Mean Anomaly(deg)": 294.72760342074974,
        "RAAN(deg)": 54.99983023250329,
        "Satellite Name": "Constellation 1 260",
        "Satellite Number": 260,
        "Semi-Major Axis(m)": 7083131.272910544,
        "Time(s)": 3
    },
    {
        "Altitude(m)": 715791.8866702901,
        "Argument of Periapsis(deg)": 0.00023979202498162244,
        "Eccentricity": 0.0,
        "Inclination(deg)": 45.0,
        "Latitude(deg)": -40.107228442217824,
        "Longitude(deg)": -101.89182322209376,
        "Mean Anomaly(deg)": 294.7883045609996,
        "RAAN(deg)": 54.99977364333772,
        "Satellite Name": "Constellation 1 260",
        "Satellite Number": 260,
        "Semi-Major Axis(m)": 7083131.272910544,
        "Time(s)": 4
    },
    {
        "Altitude(m)": 715782.164317326,
        "Argument of Periapsis(deg)": 0.00029974003122702807,
        "Eccentricity": 0.0,
        "Inclination(deg)": 45.0,
        "Latitude(deg)": -40.08376287302894,
        "Longitude(deg)": -101.82308272784846,
        "Mean Anomaly(deg)": 294.8490057012495,
        "RAAN(deg)": 54.999717054172145,
        "Satellite Name": "Constellation 1 260",
        "Satellite Number": 260,
        "Semi-Major Axis(m)": 7083131.272910544,
        "Time(s)": 5
    },
    {
        "Altitude(m)": 715772.4232632606,
        "Argument of Periapsis(deg)": 0.00035968803747243373,
        "Eccentricity": 0.0,
        "Inclination(deg)": 45.0,
        "Latitude(deg)": -40.06025141122947,
        "Longitude(deg)": -101.75439215455819,
        "Mean Anomaly(deg)": 294.9097068414994,
        "RAAN(deg)": 54.999660465006585,
        "Satellite Name": "Constellation 1 260",
        "Satellite Number": 260,
        "Semi-Major Axis(m)": 7083131.272910544,
        "Time(s)": 6
    },
    {
        "Altitude(m)": 715762.6635436134,
        "Argument of Periapsis(deg)": 0.00041963604371783933,
        "Eccentricity": 0.0,
        "Inclination(deg)": 45.0,
        "Latitude(deg)": -40.03669412543933,
        "Longitude(deg)": -101.68575169161952,
        "Mean Anomaly(deg)": 294.97040798174936,
        "RAAN(deg)": 54.99960387584101,
        "Satellite Name": "Constellation 1 260",
        "Satellite Number": 260,
        "Semi-Major Axis(m)": 7083131.272910544,
        "Time(s)": 7
    },
    {
        "Altitude(m)": 715752.8851939917,
        "Argument of Periapsis(deg)": 0.0004795840499632449,
        "Eccentricity": 0.0,
        "Inclination(deg)": 45.0,
        "Latitude(deg)": -40.01309108428795,
        "Longitude(deg)": -101.61716102368612,
        "Mean Anomaly(deg)": 295.03110912199924,
        "RAAN(deg)": 54.999547286675444,
        "Satellite Name": "Constellation 1 260",
        "Satellite Number": 260,
        "Semi-Major Axis(m)": 7083131.272910544,
        "Time(s)": 8
    },
    {
        "Altitude(m)": 715743.0882500517,
        "Argument of Periapsis(deg)": 0.0005395320562086505,
        "Eccentricity": 0.0,
        "Inclination(deg)": 45.0,
        "Latitude(deg)": -39.989442356412845,
        "Longitude(deg)": -101.54862033925252,
        "Mean Anomaly(deg)": 295.09181026224906,
        "RAAN(deg)": 54.99949069750987,
        "Satellite Name": "Constellation 1 260",
        "Satellite Number": 260,
        "Semi-Major Axis(m)": 7083131.272910544,
        "Time(s)": 9
    },
    {
        "Altitude(m)": 715733.2727475279,
        "Argument of Periapsis(deg)": 0.0005994800624540561,
        "Eccentricity": 0.0,
        "Inclination(deg)": 45.0,
        "Latitude(deg)": -39.9657480104597,
        "Longitude(deg)": -101.48012965826753,
        "Mean Anomaly(deg)": 295.152511402499,
        "RAAN(deg)": 54.99943410834431,
        "Satellite Name": "Constellation 1 260",
        "Satellite Number": 260,
        "Semi-Major Axis(m)": 7083131.272910544,
        "Time(s)": 10
    },
    {
        "Altitude(m)": 715723.4387222086,
        "Argument of Periapsis(deg)": 0.0006594280686994618,
        "Eccentricity": 0.0,
        "Inclination(deg)": 45.0,
        "Latitude(deg)": -39.94200811508123,
        "Longitude(deg)": -101.41168900023156,
        "Mean Anomaly(deg)": 295.2132125427489,
        "RAAN(deg)": 54.999377519178736,
        "Satellite Name": "Constellation 1 260",
        "Satellite Number": 260,
        "Semi-Major Axis(m)": 7083131.272910544,
        "Time(s)": 11
    },
    {
        "Altitude(m)": 715713.5862099521,
        "Argument of Periapsis(deg)": 0.0007193760749448675,
        "Eccentricity": 0.0,
        "Inclination(deg)": 45.0,
        "Latitude(deg)": -39.91822273893697,
        "Longitude(deg)": -101.34329838419926,
        "Mean Anomaly(deg)": 295.2739136829988,
        "RAAN(deg)": 54.99932093001317,
        "Satellite Name": "Constellation 1 260",
        "Satellite Number": 260,
        "Semi-Major Axis(m)": 7083131.272910544,
        "Time(s)": 12
    },
    {
        "Altitude(m)": 715703.7152466838,
        "Argument of Periapsis(deg)": 0.000779324081190273,
        "Eccentricity": 0.0,
        "Inclination(deg)": 45.0,
        "Latitude(deg)": -39.89439195069245,
        "Longitude(deg)": -101.27495782877982,
        "Mean Anomaly(deg)": 295.33461482324867,
        "RAAN(deg)": 54.999264340847596,
        "Satellite Name": "Constellation 1 260",
        "Satellite Number": 260,
        "Semi-Major Axis(m)": 7083131.272910544,
        "Time(s)": 13
    },
    {
        "Altitude(m)": 715693.8258683897,
        "Argument of Periapsis(deg)": 0.0008392720874356787,
        "Eccentricity": 0.0,
        "Inclination(deg)": 45.0,
        "Latitude(deg)": -39.87051581901859,
        "Longitude(deg)": -101.2066673521387,
        "Mean Anomaly(deg)": 295.3953159634986,
        "RAAN(deg)": 54.99920775168203,
        "Satellite Name": "Constellation 1 260",
        "Satellite Number": 260,
        "Semi-Major Axis(m)": 7083131.272910544,
        "Time(s)": 14
    },
    {
        "Altitude(m)": 715683.9181111297,
        "Argument of Periapsis(deg)": 0.0008992200936810842,
        "Eccentricity": 0.0,
        "Inclination(deg)": 45.0,
        "Latitude(deg)": -39.84659441259096,
        "Longitude(deg)": -101.13842714009597,
        "Mean Anomaly(deg)": 295.45601710374854,
        "RAAN(deg)": 54.999151162516455,
        "Satellite Name": "Constellation 1 260",
        "Satellite Number": 260,
        "Semi-Major Axis(m)": 7083131.272910544,
        "Time(s)": 15
    },
    {
        "Altitude(m)": 715673.9920110134,
        "Argument of Periapsis(deg)": 0.0009591680999264898,
        "Eccentricity": 0.0,
        "Inclination(deg)": 45.0,
        "Latitude(deg)": -39.82262780008977,
        "Longitude(deg)": -101.07023687373933,
        "Mean Anomaly(deg)": 295.5167182439984,
        "RAAN(deg)": 54.99909457335089,
        "Satellite Name": "Constellation 1 260",
        "Satellite Number": 260,
        "Semi-Major Axis(m)": 7083131.272910544,
        "Time(s)": 16
    },
    {
        "Altitude(m)": 715664.0476042276,
        "Argument of Periapsis(deg)": 0.0010191161061718953,
        "Eccentricity": 0.0,
        "Inclination(deg)": 45.0,
        "Latitude(deg)": -39.79861605019835,
        "Longitude(deg)": -101.00209673800785,
        "Mean Anomaly(deg)": 295.5774193842483,
        "RAAN(deg)": 54.999037984185314,
        "Satellite Name": "Constellation 1 260",
        "Satellite Number": 260,
        "Semi-Major Axis(m)": 7083131.272910544,
        "Time(s)": 17
    },
    {
        "Altitude(m)": 715654.0849270163,
        "Argument of Periapsis(deg)": 0.001079064112417301,
        "Eccentricity": 0.0,
        "Inclination(deg)": 45.0,
        "Latitude(deg)": -39.77455923160316,
        "Longitude(deg)": -100.93400674930511,
        "Mean Anomaly(deg)": 295.6381205244982,
        "RAAN(deg)": 54.998981395019754,
        "Satellite Name": "Constellation 1 260",
        "Satellite Number": 260,
        "Semi-Major Axis(m)": 7083131.272910544,
        "Time(s)": 18
    }
]